{"fetched_at":"2026-03-29T02:12:04Z","count":15717,"tles":[{"name":"GUOWANG GROUP 20 OBJECT*","line1":"1 68137U 26047J   26082.88983446 -.00000137  00000+0  91454-5 0  9991","line2":"2 68137  50.0081  12.5219 0000175 124.6965 235.3956 14.02259904  1568","category":"Other"}]}